{"type":"FeatureCollection","features":[{"type":"Feature","properties":{},"geometry":{"coordinates":[140.12190213775938,39.23623037438077],"type":"Point"}},{"type":"Feature","properties":{},"geometry":{"coordinates":[139.82175891972156,38.528129185420596],"type":"Point"}},{"type":"Feature","properties":{},"geometry":{"coordinates":[140.19569143506988,35.44042168944496],"type":"Point"}},{"type":"Feature","properties":{},"geometry":{"coordinates":[138.2024557837526,35.4521812305361],"type":"Point"}},{"type":"Feature","properties":{},"geometry":{"coordinates":[135.73964613975704,34.894950737860825],"type":"Point"}},{"type":"Feature","properties":{},"geometry":{"coordinates":[130.5537926432769,33.68440246011855],"type":"Point"}},{"type":"Feature","properties":{},"geometry":{"coordinates":[131.1621462590682,32.92355264227875],"type":"Point"}},{"type":"Feature","properties":{},"geometry":{"coordinates":[133.3984970956568,35.17157387813852],"type":"Point"}},{"type":"Feature","properties":{},"geometry":{"coordinates":[130.99566033156498,32.241675287121325],"type":"Point"}},{"type":"Feature","properties":{},"geometry":{"coordinates":[141.52237134679308,39.840875371984794],"type":"Point"}},{"type":"Feature","properties":{},"geometry":{"coordinates":[142.7492108245741,43.665696659383116],"type":"Point"}},{"type":"Feature","properties":{},"geometry":{"coordinates":[142.49960043139265,42.92228288392019],"type":"Point"}}]}