{
  "type": "FeatureCollection",
  "features": [
    {
      "type": "Feature",
      "properties": { "name": "polygon" },
      "geometry": {
        "coordinates": [
          [
            [140.07272078876116, 39.80381069391933],
            [140.03392223699865, 39.36355467491833],
            [140.96504889454462, 39.31627562736827],
            [140.93099242516695, 39.80309698015657],
            [140.07272078876116, 39.80381069391933]
          ]
        ],
        "type": "Polygon"
      },
      "id": 0
    },
    {
      "type": "Feature",
      "properties": { "name": "rectangle" },
      "geometry": {
        "coordinates": [
          [
            [141.1760844514568, 43.13788643530475],
            [141.1760844514568, 42.66110659896978],
            [141.9318856727283, 42.66110659896978],
            [141.9318856727283, 43.13788643530475],
            [141.1760844514568, 43.13788643530475]
          ]
        ],
        "type": "Polygon"
      },
      "id": 1
    },
    {
      "type": "Feature",
      "properties": { "name": "circle" },
      "geometry": {
        "type": "Polygon",
        "coordinates": [
          [
            [139.3272050051931, 38.56600067863573],
            [139.17676199195222, 38.56012640796894],
            [139.02783994687553, 38.5425630318623],
            [138.88194220503075, 38.513488165051605],
            [138.7405371395948, 38.47319553456235],
            [138.6050414316423, 38.4220915759732],
            [138.47680421332808, 38.36069075179153],
            [138.3570923314527, 38.289609672089476],
            [138.24707694375124, 38.20956011574404],
            [138.14782162061857, 38.12134106568014],
            [138.06027208237813, 38.02582988312505],
            [137.98524765865335, 37.92397275391797],
            [137.9234345138291, 37.81677454442884],
            [137.87538064267895, 37.705288205825134],
            [137.8414926043581, 37.59060386361378],
            [137.82203393213254, 37.473837724999484],
            [137.81712513104603, 37.35612093011799],
            [137.82674515648148, 37.23858846512814],
            [137.8507342531626, 37.12236824596958],
            [137.88879802621122, 37.0085704717771],
            [137.94051261285964, 36.89827733689006],
            [138.00533082459776, 36.792533180447236],
            [138.08258913413079, 36.69233514298092],
            [138.1715153887207, 36.59862439041275],
            [138.27123714051174, 36.512277957535424],
            [138.38079049457383, 36.434101255503464],
            [138.49912938601722, 36.36482128106869],
            [138.62513520810228, 36.30508055925634],
            [138.75762672336552, 36.25543184583128],
            [138.8953701990803, 36.21633361117659],
            [139.03708971661885, 36.18814632301362],
            [139.18147761132178, 36.171129541643396],
            [139.3272050051931, 36.16543983799529],
            [139.47293239906438, 36.171129541643396],
            [139.6173202937673, 36.18814632301362],
            [139.75903981130585, 36.21633361117659],
            [139.89678328702064, 36.25543184583128],
            [140.02927480228388, 36.30508055925634],
            [140.15528062436894, 36.36482128106869],
            [140.27361951581236, 36.434101255503464],
            [140.38317286987441, 36.512277957535424],
            [140.48289462166545, 36.59862439041275],
            [140.5718208762554, 36.69233514298092],
            [140.6490791857884, 36.792533180447236],
            [140.71389739752652, 36.89827733689006],
            [140.76561198417494, 37.0085704717771],
            [140.80367575722354, 37.12236824596957],
            [140.82766485390468, 37.23858846512814],
            [140.83728487934016, 37.35612093011799],
            [140.83237607825365, 37.473837724999484],
            [140.81291740602808, 37.59060386361378],
            [140.77902936770724, 37.705288205825134],
            [140.73097549655705, 37.81677454442884],
            [140.66916235173284, 37.92397275391797],
            [140.59413792800802, 38.02582988312505],
            [140.5065883897676, 38.12134106568014],
            [140.40733306663495, 38.20956011574404],
            [140.29731767893347, 38.289609672089476],
            [140.17760579705808, 38.36069075179153],
            [140.0493685787439, 38.4220915759732],
            [139.91387287079135, 38.47319553456235],
            [139.7724678053554, 38.513488165051605],
            [139.62657006351066, 38.5425630318623],
            [139.47764801843394, 38.56012640796894],
            [139.3272050051931, 38.56600067863573]
          ]
        ]
      },
      "id": 2
    },
    {
      "type": "Feature",
      "properties": { "name": "polygon" },
      "geometry": {
        "coordinates": [
          [
            [135.25759356873886, 35.05834839545015],
            [135.43029369235956, 34.76735547506024],
            [135.8634551065245, 34.41328092884305],
            [136.0638057199311, 34.93364178913433],
            [135.25759356873886, 35.05834839545015]
          ]
        ],
        "type": "Polygon"
      },
      "id": 3
    },
    {
      "type": "Feature",
      "properties": { "name": "polygon" },
      "geometry": {
        "coordinates": [
          [
            [131.82467226236224, 34.56784132589475],
            [132.02872122534473, 34.27987678487398],
            [132.7534518067589, 34.29030632087715],
            [133.22029195206648, 34.851338090752535],
            [131.82467226236224, 34.56784132589475]
          ]
        ],
        "type": "Polygon"
      },
      "id": 4
    }
  ]
}
